STARLINK-1597           
1 46142U 20057AB  23341.61167603 -.00000840  00000+0 -37500-4 0  9996
2 46142  53.0563  51.5618 0001300  87.0791 273.0347 15.06396952182006
STARLINK-1606           
1 46144U 20057AD  23341.44396476 -.00005847  00000+0 -37402-3 0  9993
2 46144  53.0556  32.3114 0001448 104.6114 255.5036 15.06391357170513
STARLINK-1608           
1 46146U 20057AF  23341.49004222 -.00001303  00000+0 -68635-4 0  9991
2 46146  53.0553  52.1035 0001318  97.6898 262.4241 15.06395151181995
STARLINK-1611           
1 46147U 20057AG  23341.47161556 -.00000780  00000+0 -33455-4 0  9994
2 46147  53.0560  52.1845 0001457 101.5161 258.5992 15.06398581183244
STARLINK-1616           
1 46148U 20057AH  23341.41079629  .00002175  00000+0  16495-3 0  9990
2 46148  53.0571  32.4543 0002166 158.9347 201.1732 15.06388775182253
STARLINK-1620           
1 46149U 20057AJ  23341.35823813  .00011605  00000+0  79680-3 0  9999
2 46149  53.0550  32.6872 0001790 146.4551 213.6552 15.06393865183524
STARLINK-1629           
1 46150U 20057AK  23341.48637231  .00000831  00000+0  74689-4 0  9996
2 46150  53.0558  52.1223 0001463  95.0414 265.0742 15.06387131181995
STARLINK-1631           
1 46151U 20057AL  23341.52873941 -.00001532  00000+0 -83979-4 0  9995
2 46151  53.0543  31.9311 0001423  95.7720 264.3431 15.06392894182277
STARLINK-1634           
1 46152U 20057AM  23341.51585462 -.00000796  00000+0 -34577-4 0  9994
2 46152  53.0548  52.0262 0001400  84.5480 275.5668 15.06394089181998
STARLINK-1636           
1 46153U 20057AN  23341.41447881  .00003045  00000+0  22323-3 0  9999
2 46153  53.0551  32.4451 0001394 102.6165 257.4980 15.06402784182257
STARLINK-1642           
1 46154U 20057AP  23341.55731940 -.00001315  00000+0 -69439-4 0  9997
2 46154  53.0559  41.8050 0001322 106.7909 253.3225 15.06394369182141
STARLINK-1667           
1 46155U 20057AQ  23341.38315594 -.00001311  00000+0 -69163-4 0  9992
2 46155  53.0573  12.5858 0001547 116.7246 243.3901 15.06397967183770
STARLINK-1545           
1 46156U 20057AR  23341.44027933 -.00004004  00000+0 -25006-3 0  9996
2 46156  53.0557  32.3222 0001414  93.7939 266.3211 15.06394785183510
STARLINK-1587           
1 46157U 20057AS  23341.36103283 -.00002183  00000+0 -12768-3 0  9998
2 46157  53.0559  12.6870 0001368  82.4940 277.6204 15.06399036182530
STARLINK-1589           
1 46158U 20057AT  23341.49004479 -.00000797  00000+0 -34639-4 0  9991
2 46158  53.0555  12.1073 0001386  93.1813 266.9335 15.06397832183815
STARLINK-1595           
1 46159U 20057AU  23341.46425343  .00002579  00000+0  19201-3 0  9991
2 46159  53.0559  52.2247 0001650  74.0278 286.0893 15.06398409183245
STARLINK-1598           
1 46160U 20057AV  23341.45502659 -.00002655  00000+0 -15942-3 0  9993
2 46160  53.0552  32.2668 0001420  81.7126 278.4024 15.06397690183519
STARLINK-1600           
1 46161U 20057AW  23341.43290824 -.00001821  00000+0 -10340-3 0  9991
2 46161  53.0558  32.3617 0001449 116.4203 243.6934 15.06395901183511
STARLINK-1603           
1 46162U 20057AX  23341.56928583  .00003018  00000+0  22141-3 0  9996
2 46162  53.0554  31.7501 0001211 102.3277 257.7848 15.06397760183543
STARLINK-1610           
1 46163U 20057AY  23341.30205330 -.00002455  00000+0 -14596-3 0  9998
2 46163  53.0549  12.9493 0001168  89.4184 270.6939 15.06400210182529
STARLINK-1612           
1 46164U 20057AZ  23341.36471840 -.00001030  00000+0 -50269-4 0  9992
2 46164  53.0554  12.6691 0001338  95.0993 265.0149 15.06405531183795
STARLINK-1613           
1 46165U 20057BA  23341.23974871  .00027967  00000+0  60598-3 0  9991
2 46165  53.0583 331.3646 0005535  81.4907 278.6726 15.44227702183128
STARLINK-1615           
1 46166U 20057BB  23341.48266579 -.00007455  00000+0 -48214-3 0  9991
2 46166  53.0556  52.1422 0001347  84.0158 276.0984 15.06395916181995
STARLINK-1626           
1 46167U 20057BC  23341.49740892 -.00003645  00000+0 -22592-3 0  9996
2 46167  53.0548  52.0712 0001260 126.6145 233.4960 15.06397996181992
STARLINK-1627           
1 46168U 20057BD  23341.47623244 -.00002253  00000+0 -13244-3 0  9994
2 46168  53.0552   2.2526 0001359  97.2288 262.8855 15.06394546182682
STARLINK-1628           
1 46169U 20057BE  23341.57856070  .00000283  00000+0  37881-4 0  9994
2 46169  53.0556  52.0955 0001151  95.4446 264.6674 15.06395957181946
STARLINK-1633           
1 46171U 20057BG  23341.53980262  .00001658  00000+0  13021-3 0  9990
2 46171  53.0551  31.8822 0001412  94.9201 265.1949 15.06396609183538
STARLINK-1635           
1 46172U 20057BH  23341.42184865 -.00000330  00000+0 -32464-5 0  9996
2 46172  53.0549  32.4124 0001483 123.3060 236.8071 15.06400421183513
STARLINK-1640           
1 46173U 20057BJ  23341.60063862  .00001639  00000+0  12892-3 0  9992
2 46173  53.0555  51.6094 0001384  94.0337 266.0811 15.06400069182009
STARLINK-1641           
1 46174U 20057BK  23341.47529129 -.00003174  00000+0 -19428-3 0  9991
2 46174  53.0530  52.1659 0001249 121.0929 239.0183 15.06395927181988
STARLINK-1734           
1 46325U 20062A   23341.55315599 -.00002351  00000+0 -13897-3 0  9998
2 46325  53.0556  66.8141 0001565 115.1938 244.9213 15.06398881181483
STARLINK-1654           
1 46326U 20062B   23341.55088550  .00001147  00000+0  95851-4 0  9994
2 46326  53.0541 112.0702 0001211  96.9794 263.1332 15.06403185180241
STARLINK-1673           
1 46327U 20062C   23341.37392730  .00000601  00000+0  59250-4 0  9990
2 46327  53.0546 112.6269 0001308  87.5224 272.5914 15.06401627180218
STARLINK-1686           
1 46328U 20062D   23341.55269797  .00001928  00000+0  14823-3 0  9996
2 46328  53.0550  91.8235 0001302  90.9402 269.1736 15.06411287180526
STARLINK-1695           
1 46329U 20062E   23341.51951887 -.00000757  00000+0 -31892-4 0  9998
2 46329  53.0545  91.9721 0001165  93.7829 266.3294 15.06420059180517
STARLINK-1710           
1 46330U 20062F   23341.50845917 -.00003268  00000+0 -20047-3 0  9994
2 46330  53.0542  92.0243 0001364  87.7206 272.3939 15.06419377180525
STARLINK-1719           
1 46331U 20062G   23340.54830700  .00022988  00000+0  15615-2 0  9994
2 46331  53.0554 116.3344 0001638  88.3243 271.7934 15.06295560180279
STARLINK-1721           
1 46332U 20062H   23341.50983560  .00014493  00000+0  58542-3 0  9994
2 46332  53.0381  86.3153 0002841 210.5883 149.4949 15.25007222180609
STARLINK-1723           
1 46333U 20062J   23341.37022451 -.00000021  00000+0  17505-4 0  9991
2 46333  53.0512 112.6416 0001391 106.9318 253.1823 15.06433506180219
STARLINK-1725           
1 46334U 20062K   23341.50480712  .00000229  00000+0  34292-4 0  9996
2 46334  53.0547  92.3226 0001364  89.6954 270.4192 15.06409577180519
STARLINK-1727           
1 46335U 20062L   23341.53242085  .00000459  00000+0  49721-4 0  9997
2 46335  53.0565 111.9122 0001474 110.9229 249.1918 15.06403834180247
STARLINK-1738           
1 46336U 20062M   23341.52320064 -.00003387  00000+0 -20841-3 0  9997
2 46336  53.0565  91.9583 0001467  98.0668 262.0488 15.06425235180516
STARLINK-1750           
1 46337U 20062N   23341.53794542 -.00001870  00000+0 -10658-3 0  9995
2 46337  53.0544  91.8891 0001238  90.5400 269.5731 15.06424598180527
STARLINK-1752           
1 46338U 20062P   23341.52136998  .00000003  00000+0  19077-4 0  9990
2 46338  53.0535 111.9641 0001378  99.2085 260.9060 15.06396342180238
STARLINK-1759           
1 46340U 20062R   23341.52774953  .00000768  00000+0  70457-4 0  9999
2 46340  53.0548 111.5863 0001519 110.2807 249.8346 15.06407577180236
STARLINK-1760           
1 46341U 20062S   23341.50109050  .00001006  00000+0  86418-4 0  9998
2 46341  53.0544  92.0590 0001282  85.1386 274.9750 15.06401705180529
STARLINK-1762           
1 46342U 20062T   23341.54716891  .00000898  00000+0  79169-4 0  9993
2 46342  53.0550 111.8485 0001341  84.5339 275.5803 15.06406184180248
STARLINK-1764           
1 46343U 20062U   23341.54163405  .00001982  00000+0  15184-3 0  9992
2 46343  53.0561  91.8737 0001539 109.6077 250.5078 15.06413975180529
STARLINK-1765           
1 46344U 20062V   23341.56006004 -.00004032  00000+0 -25179-3 0  9992
2 46344  53.0553  91.7905 0001518 103.6100 256.5059 15.06423902180521
STARLINK-1767           
1 46345U 20062W   23341.56191197  .00001409  00000+0  11343-3 0  9992
2 46345  53.0555 111.7857 0001275  88.1540 271.9595 15.06412016180247
STARLINK-1547           
1 46347U 20062Y   23341.45363385 -.00004432  00000+0 -27881-3 0  9997
2 46347  53.0542  67.2637 0001182 106.8021 253.3098 15.06398536180843
STARLINK-1553           
1 46348U 20062Z   23341.56375540  .00002217  00000+0  16771-3 0  9999
2 46348  53.0534  91.7714 0001397  86.1408 273.9741 15.06399839180525
STARLINK-1575           
1 46349U 20062AA  23341.56053456  .00001029  00000+0  87953-4 0  9990
2 46349  53.0538  66.7897 0001276 123.0117 237.0995 15.06406851180871
STARLINK-1617           
1 46350U 20062AB  23341.52504917  .00000925  00000+0  80991-4 0  9990
2 46350  53.0565 111.9501 0001178  63.4304 296.6805 15.06407655180249
STARLINK-1646           
1 46351U 20062AC  23341.53057569  .00001456  00000+0  11661-3 0  9995
2 46351  53.0547  91.9142 0001765 118.7238 241.3928 15.06407932180533
STARLINK-1653           
1 46352U 20062AD  23341.51214924  .00006612  00000+0  46249-3 0  9993
2 46352  53.0550  92.0085 0001479  76.1213 283.9941 15.06391560180523
STARLINK-1656           
1 46353U 20062AE  23341.57665517  .00002426  00000+0  18170-3 0  9999
2 46353  53.0545 111.7172 0001371  87.4411 272.6735 15.06407450180241
STARLINK-1657           
1 46354U 20062AF  23341.56559616  .00000670  00000+0  63882-4 0  9991
2 46354  53.0556 111.7701 0001253  88.8735 271.2398 15.06403082180242
STARLINK-1661           
1 46355U 20062AG  23341.53981739 -.00000841  00000+0 -37586-4 0  9998
2 46355  53.0536 111.8825 0001543 101.3503 258.7659 15.06401403180240
